{
  "type": "FeatureCollection",
  "features": [
    {
      "type": "Feature",
      "properties": {
        "norad_id": 35616,
        "name": "IRIDIUM 33 DEB",
        "group": "iridium-33-debris",
        "lat": -33.50171783661938,
        "lon": -17.41294750274327,
        "alt_km": 636.6704467591799,
        "timestamp": "2025-12-14T09:36:23.423654+00:00",
        "meta_object_name": "IRIDIUM 33 DEB",
        "meta_object_id": "1997-051QN",
        "meta_epoch": "2025-12-13T06:12:25.260480",
        "meta_mean_motion": 14.81841111,
        "meta_eccentricity": 0.00102457,
        "meta_inclination": 86.3535,
        "meta_ra_of_asc_node": 345.5275,
        "meta_arg_of_pericenter": 162.0013,
        "meta_mean_anomaly": 198.1574,
        "meta_ephemeris_type": 0,
        "meta_classification_type": "U",
        "meta_norad_cat_id": 35616,
        "meta_element_set_no": 999,
        "meta_rev_at_epoch": 87582,
        "meta_bstar": 0.0030119844,
        "meta_mean_motion_dot": 0.00023901,
        "meta_mean_motion_ddot": 0,
        "tle_line1": "1 35616U 97051QN  25347.25862570  .00023901  00000+0  30120-2 0  9991",
        "tle_line2": "2 35616  86.3535 345.5275 0010245 162.0013 198.1574 14.81841111875824"
      },
      "geometry": {
        "type": "Point",
        "coordinates": [
          -17.41294750274327,
          -33.50171783661938
        ]
      }
    },
    {
      "type": "Feature",
      "properties": {
        "norad_id": 35618,
        "name": "IRIDIUM 33 DEB",
        "group": "iridium-33-debris",
        "lat": -83.06207337281626,
        "lon": -38.95283613235198,
        "alt_km": 729.1520094342095,
        "timestamp": "2025-12-14T09:36:23.423666+00:00",
        "meta_object_name": "IRIDIUM 33 DEB",
        "meta_object_id": "1997-051QQ",
        "meta_epoch": "2025-12-05T07:42:53.148672",
        "meta_mean_motion": 14.52258119,
        "meta_eccentricity": 0.00302089,
        "meta_inclination": 86.3407,
        "meta_ra_of_asc_node": 356.7447,
        "meta_arg_of_pericenter": 46.3254,
        "meta_mean_anomaly": 314.0448,
        "meta_ephemeris_type": 0,
        "meta_classification_type": "U",
        "meta_norad_cat_id": 35618,
        "meta_element_set_no": 999,
        "meta_rev_at_epoch": 65286,
        "meta_bstar": 0.00091388234,
        "meta_mean_motion_dot": 3.753e-05,
        "meta_mean_motion_ddot": 0,
        "tle_line1": "1 35618U 97051QQ  25339.32144848  .00003753  00000+0  91388-3 0  9990",
        "tle_line2": "2 35618  86.3407 356.7447 0030208  46.3254 314.0448 14.52258119652865"
      },
      "geometry": {
        "type": "Point",
        "coordinates": [
          -38.95283613235198,
          -83.06207337281626
        ]
      }
    },
    {
      "type": "Feature",
      "properties": {
        "norad_id": 35620,
        "name": "IRIDIUM 33 DEB",
        "group": "iridium-33-debris",
        "lat": 7.698808820421707,
        "lon": 36.264225941844174,
        "alt_km": 750.152925115879,
        "timestamp": "2025-12-14T09:36:23.423676+00:00",
        "meta_object_name": "IRIDIUM 33 DEB",
        "meta_object_id": "1997-051QS",
        "meta_epoch": "2025-12-12T01:41:06.603648",
        "meta_mean_motion": 14.38023351,
        "meta_eccentricity": 0.01413324,
        "meta_inclination": 86.3886,
        "meta_ra_of_asc_node": 217.736,
        "meta_arg_of_pericenter": 261.1948,
        "meta_mean_anomaly": 97.3224,
        "meta_ephemeris_type": 0,
        "meta_classification_type": "U",
        "meta_norad_cat_id": 35620,
        "meta_element_set_no": 999,
        "meta_rev_at_epoch": 59956,
        "meta_bstar": 0.0071195038,
        "meta_mean_motion_dot": 0.00024261,
        "meta_mean_motion_ddot": 0,
        "tle_line1": "1 35620U 97051QS  25346.07021532  .00024261  00000+0  71195-2 0  9997",
        "tle_line2": "2 35620  86.3886 217.7360 0141332 261.1948  97.3224 14.38023351599569"
      },
      "geometry": {
        "type": "Point",
        "coordinates": [
          36.264225941844174,
          7.698808820421707
        ]
      }
    },
    {
      "type": "Feature",
      "properties": {
        "norad_id": 35622,
        "name": "IRIDIUM 33 DEB",
        "group": "iridium-33-debris",
        "lat": -62.00624028194152,
        "lon": -104.38968322327493,
        "alt_km": 554.9835001524698,
        "timestamp": "2025-12-14T09:36:23.423687+00:00",
        "meta_object_name": "IRIDIUM 33 DEB",
        "meta_object_id": "1997-051QU",
        "meta_epoch": "2025-12-13T12:18:27.452736",
        "meta_mean_motion": 15.04855982,
        "meta_eccentricity": 0.00058138,
        "meta_inclination": 86.204,
        "meta_ra_of_asc_node": 263.2227,
        "meta_arg_of_pericenter": 326.3099,
        "meta_mean_anomaly": 206.7001,
        "meta_ephemeris_type": 0,
        "meta_classification_type": "U",
        "meta_norad_cat_id": 35622,
        "meta_element_set_no": 999,
        "meta_rev_at_epoch": 87371,
        "meta_bstar": 0.007661382,
        "meta_mean_motion_dot": 0.00109841,
        "meta_mean_motion_ddot": 0,
        "tle_line1": "1 35622U 97051QU  25347.51281774  .00109841  00000+0  76614-2 0  9994",
        "tle_line2": "2 35622  86.2040 263.2227 0005813 326.3099 206.7001 15.04855982873712"
      },
      "geometry": {
        "type": "Point",
        "coordinates": [
          -104.38968322327493,
          -62.00624028194152
        ]
      }
    },
    {
      "type": "Feature",
      "properties": {
        "norad_id": 35628,
        "name": "IRIDIUM 33 DEB",
        "group": "iridium-33-debris",
        "lat": -83.33443280736576,
        "lon": -138.63974007416388,
        "alt_km": 673.9658121915145,
        "timestamp": "2025-12-14T09:36:23.423697+00:00",
        "meta_object_name": "IRIDIUM 33 DEB",
        "meta_object_id": "1997-051RA",
        "meta_epoch": "2025-12-12T18:46:03.477216",
        "meta_mean_motion": 14.67584351,
        "meta_eccentricity": 0.00103833,
        "meta_inclination": 86.3581,
        "meta_ra_of_asc_node": 9.0566,
        "meta_arg_of_pericenter": 342.8162,
        "meta_mean_anomaly": 17.2699,
        "meta_ephemeris_type": 0,
        "meta_classification_type": "U",
        "meta_norad_cat_id": 35628,
        "meta_element_set_no": 999,
        "meta_rev_at_epoch": 86447,
        "meta_bstar": 0.0018776311,
        "meta_mean_motion_dot": 0.00010694,
        "meta_mean_motion_ddot": 0,
        "tle_line1": "1 35628U 97051RA  25346.78198469  .00010694  00000+0  18776-2 0  9998",
        "tle_line2": "2 35628  86.3581   9.0566 0010383 342.8162  17.2699 14.67584351864471"
      },
      "geometry": {
        "type": "Point",
        "coordinates": [
          -138.63974007416388,
          -83.33443280736576
        ]
      }
    },
    {
      "type": "Feature",
      "properties": {
        "norad_id": 35631,
        "name": "IRIDIUM 33 DEB",
        "group": "iridium-33-debris",
        "lat": 39.131873638882276,
        "lon": 23.22346799523763,
        "alt_km": 727.6298353294114,
        "timestamp": "2025-12-14T09:36:23.423707+00:00",
        "meta_object_name": "IRIDIUM 33 DEB",
        "meta_object_id": "1997-051RD",
        "meta_epoch": "2025-12-13T08:35:52.941696",
        "meta_mean_motion": 14.47314352,
        "meta_eccentricity": 0.00190886,
        "meta_inclination": 86.3675,
        "meta_ra_of_asc_node": 20.7093,
        "meta_arg_of_pericenter": 116.1706,
        "meta_mean_anomaly": 257.5485,
        "meta_ephemeris_type": 0,
        "meta_classification_type": "U",
        "meta_norad_cat_id": 35631,
        "meta_element_set_no": 999,
        "meta_rev_at_epoch": 87206,
        "meta_bstar": 0.00058903545,
        "meta_mean_motion_dot": 2.18e-05,
        "meta_mean_motion_ddot": 0,
        "tle_line1": "1 35631U 97051RD  25347.35825164  .00002180  00000+0  58904-3 0  9994",
        "tle_line2": "2 35631  86.3675  20.7093 0019088 116.1706 257.5485 14.47314352872067"
      },
      "geometry": {
        "type": "Point",
        "coordinates": [
          23.22346799523763,
          39.131873638882276
        ]
      }
    },
    {
      "type": "Feature",
      "properties": {
        "norad_id": 35680,
        "name": "IRIDIUM 33 DEB",
        "group": "iridium-33-debris",
        "lat": -31.51345942585072,
        "lon": -156.8174990402939,
        "alt_km": 775.6066301305045,
        "timestamp": "2025-12-14T09:36:23.423718+00:00",
        "meta_object_name": "IRIDIUM 33 DEB",
        "meta_object_id": "1997-051RJ",
        "meta_epoch": "2025-12-13T09:13:25.254912",
        "meta_mean_motion": 14.20938352,
        "meta_eccentricity": 0.01504857,
        "meta_inclination": 86.103,
        "meta_ra_of_asc_node": 21.2368,
        "meta_arg_of_pericenter": 276.4463,
        "meta_mean_anomaly": 142.7573,
        "meta_ephemeris_type": 0,
        "meta_classification_type": "U",
        "meta_norad_cat_id": 35680,
        "meta_element_set_no": 999,
        "meta_rev_at_epoch": 60710,
        "meta_bstar": 0.0061528167,
        "meta_mean_motion_dot": 0.00014968,
        "meta_mean_motion_ddot": 0,
        "tle_line1": "1 35680U 97051RJ  25347.38432008  .00014968  00000+0  61528-2 0  9994",
        "tle_line2": "2 35680  86.1030  21.2368 0150485 276.4463 142.7573 14.20938352607109"
      },
      "geometry": {
        "type": "Point",
        "coordinates": [
          -156.8174990402939,
          -31.51345942585072
        ]
      }
    }
  ]
}